GLOBALSTAR M094         
1 39074U 13005C   25365.18671895 -.00000097  00000+0  36741-4 0  9999
2 39074  51.9977 302.3131 0000695  35.2792 324.8120 12.62265491597250
GLOBALSTAR M096         
1 39075U 13005D   25365.91238162 -.00000092  00000+0  63114-4 0  9996
2 39075  52.0100 348.7700 0000341  20.3866 339.7015 12.62269660596262
GLOBALSTAR M078         
1 39076U 13005E   25365.56960888 -.00000152  00000+0 -26867-3 0  9996
2 39076  51.9886  74.0568 0000596 223.5624 136.5195 12.62270864594846
GLOBALSTAR M095         
1 39077U 13005F   25365.35837467 -.00000096  00000+0  43037-4 0  9995
2 39077  52.0093  72.0660 0000134 149.7954 210.2921 12.62267453594671
GLOBALSTAR M087         
1 52888U 22064A   25365.76739943 -.00000070  00000+0  19095-3 0  9998
2 52888  51.9970 212.1554 0000961  68.7095 291.3875 12.62262155169996
